IRIDIUM 26              
1 24903U 97043A   25296.57321692  .00000709  00000+0  23147-3 0  9995
2 24903  86.3960  56.6385 0002154  87.3958 272.7486 14.37262911475184
IRIDIUM 22              
1 24907U 97043E   25296.60957516  .00000650  00000+0  21680-3 0  9998
2 24907  86.3957  60.2741 0001983  90.2269 269.9155 14.36063294475204
DUMMY MASS 1            
1 24925U 97048A   25296.47474043  .00000805  00000+0  86518-4 0  9991
2 24925  86.3317  75.9638 0008611  61.3645 298.8445 14.87110748524193
DUMMY MASS 2            
1 24926U 97048B   25296.92939946  .00000782  00000+0  84403-4 0  9995
2 24926  86.3315  77.3856 0009552  68.5147 291.7095 14.86862222524037
IRIDIUM 29              
1 24944U 97051A   25296.93454406  .00000754  00000+0  25009-3 0  9998
2 24944  86.3910  89.8581 0001942  94.6357 265.5062 14.36588820471756
IRIDIUM 33              
1 24946U 97051C   25296.91926052  .00000590  00000+0  20051-3 0  9999
2 24946  86.3826  89.1363 0008733  31.3329 328.8386 14.34981205471201
IRIDIUM 28              
1 24948U 97051E   25296.96599167  .00000725  00000+0  23566-3 0  9993
2 24948  86.3918  87.2850 0002325  77.6838 282.4620 14.37494414472340
IRIDIUM 36              
1 24967U 97056C   25296.90910152  .00000605  00000+0  19464-3 0  9993
2 24967  86.3927 118.9435 0002008  81.4769 278.6656 14.37714769470719
